OBJECT_NAME,OBJECT_ID,EPOCH,MEAN_MOTION,ECCENTRICITY,INCLINATION,RA_OF_ASC_NODE,ARG_OF_PERICENTER,MEAN_ANOMALY,EPHEMERIS_TYPE,CLASSIFICATION_TYPE,NORAD_CAT_ID,ELEMENT_SET_NO,REV_AT_EPOCH,BSTAR,MEAN_MOTION_DOT,MEAN_MOTION_DDOT
ONEWEB-0068,2020-020Y,2026-07-22T00:30:11.173824,13.11414251,.00016673,87.8893,14.1295,95.2765,264.8554,0,U,45446,999,30716,-.11162869E-3,-.27E-6,0
ONEWEB-0046,2020-020Z,2026-07-22T00:18:10.584000,13.11416561,.00015944,87.8889,14.1345,88.9319,271.1991,0,U,45447,999,30717,.95250614E-3,.35E-5,0
ONEWEB-0063,2020-020AA,2026-07-21T10:20:56.459328,13.11417015,.00018055,87.8899,14.2522,82.7060,277.4273,0,U,45448,999,30718,-.13638584E-2,-.471E-5,0
ONEWEB-0019,2020-020AB,2026-07-22T00:05:47.538816,13.11417070,.00019968,87.8892,14.1227,94.6440,265.4917,0,U,45449,999,30710,.1584352E-2,.574E-5,0
ONEWEB-0094,2020-020AC,2026-07-21T16:16:16.822272,13.17650177,.00018652,87.9161,358.9910,101.0602,259.0739,0,U,45450,999,31085,.18900385E-3,.86E-6,0
ONEWEB-0087,2020-020AD,2026-07-21T21:34:23.708064,13.11418522,.00016111,87.8908,14.1356,98.5825,261.5486,0,U,45451,999,30713,-.10308369E-2,-.353E-5,0
ONEWEB-0082,2020-020AE,2026-07-21T21:29:30.483744,13.11418567,.00013384,87.8899,14.1504,95.9513,264.1768,0,U,45452,999,30722,-.13072937E-2,-.451E-5,0
ONEWEB-0050,2020-020AF,2026-07-22T01:19:24.750912,14.90487377,.00033076,88.9276,228.4735,156.6253,203.5127,0,U,45453,999,34557,.14888215E-3,.1474E-4,0
ONEWEB-0034,2020-020AG,2026-07-22T00:13:32.515104,13.11416640,.00017988,87.8898,14.1372,91.1113,269.0221,0,U,45454,999,30715,.15829726E-2,.574E-5,0
ONEWEB-0060,2020-020AH,2026-07-22T00:58:27.801984,13.11416350,.00015113,87.8892,14.1262,126.4263,233.7004,0,U,45455,999,30711,-.13331477E-2,-.46E-5,0
ONEWEB-0086,2020-020AJ,2026-07-22T00:27:44.892576,13.11416362,.00020643,87.8897,14.1284,114.0685,246.0659,0,U,45456,999,30717,.51170481E-3,.194E-5,0
ONEWEB-0088,2020-020AK,2026-07-21T23:56:12.420672,13.11418182,.00015726,87.8906,14.1081,80.2486,279.8819,0,U,45457,999,30710,.14039863E-2,.51E-5,0
ONEWEB-0102,2020-100A,2026-07-21T19:43:29.857440,13.12444468,.00020988,87.8971,343.7884,102.5869,257.5495,0,U,47258,999,26927,-.21629699E-3,-.65E-6,0
ONEWEB-0109,2020-100B,2026-07-21T19:55:41.834784,13.12444477,.00020056,87.8981,343.7731,96.4620,263.6737,0,U,47259,999,26910,.59935925E-3,.228E-5,0
ONEWEB-0110,2020-100C,2026-07-21T15:05:23.887680,13.12442204,.00019185,87.8980,343.7973,107.0234,253.1105,0,U,47260,999,26924,.71727918E-3,.271E-5,0
ONEWEB-0111,2020-100D,2026-07-21T08:30:10.167840,13.12444135,.0001763,87.8978,343.8705,99.6246,260.5082,0,U,47261,999,26904,-.67668769E-3,-.231E-5,0
ONEWEB-0114,2020-100E,2026-07-21T20:12:47.005344,13.12442907,.00020361,87.8983,343.7720,94.4453,265.6908,0,U,47262,999,26906,.11876418E-2,.44E-5,0
ONEWEB-0117,2020-100F,2026-07-21T16:21:01.321920,13.12443695,.00018781,87.8978,343.7934,97.5430,262.5912,0,U,47263,999,26905,.10174302E-2,.379E-5,0
ONEWEB-0118,2020-100G,2026-07-21T18:59:35.684736,13.12440873,.00018657,87.8979,343.7742,87.4691,272.6651,0,U,47264,999,26926,-.59925577E-3,-.203E-5,0
ONEWEB-0119,2020-100H,2026-07-21T19:36:11.090592,13.12443245,.00018688,87.8969,343.7829,96.8211,263.3131,0,U,47265,999,26924,-.66610062E-3,-.227E-5,0
ONEWEB-0120,2020-100J,2026-07-21T20:10:32.902176,13.12442482,.00020496,87.8970,343.7798,95.3131,264.8231,0,U,47266,999,26927,.12212953E-2,.452E-5,0
ONEWEB-0121,2020-100K,2026-07-21T16:13:41.981376,13.12443384,.00015933,87.8980,343.8017,103.3691,256.7615,0,U,47267,999,26916,.33410061E-3,.133E-5,0
ONEWEB-0122,2020-100L,2026-07-21T19:44:43.615392,13.12442653,.00020305,87.8979,343.7777,99.0132,261.1226,0,U,47268,999,26909,-.94581542E-4,-.21E-6,0
ONEWEB-0123,2020-100M,2026-07-21T08:39:55.723968,13.12444118,.00018536,87.8968,343.8727,93.6064,266.5277,0,U,47269,999,26917,-.16183934E-3,-.46E-6,0
ONEWEB-0124,2020-100N,2026-07-21T08:25:17.246784,13.12443657,.00017489,87.8967,343.8772,98.5703,261.5624,0,U,47270,999,26905,-.78744952E-3,-.271E-5,0
ONEWEB-0125,2020-100P,2026-07-21T15:12:42.052320,13.12441804,.00015542,87.8981,343.8084,94.5548,265.5758,0,U,47271,999,26915,-.52168228E-4,-.6E-7,0
ONEWEB-0126,2020-100Q,2026-07-21T19:21:45.266688,13.12442600,.00019612,87.8973,343.7872,95.0266,265.1087,0,U,47272,999,26924,-.12190439E-2,-.426E-5,0
ONEWEB-0127,2020-100R,2026-07-21T20:22:32.320416,13.12442382,.00020156,87.8968,343.7760,97.3802,262.7556,0,U,47273,999,26927,.90899969E-3,.34E-5,0
ONEWEB-0128,2020-100S,2026-07-21T08:05:46.231296,13.12442661,.00018845,87.8966,343.8914,106.9120,253.2215,0,U,47274,999,26922,-.79118241E-3,-.272E-5,0
ONEWEB-0129,2020-100T,2026-07-21T20:24:59.145120,13.12441789,.00028827,87.8980,343.7665,88.2223,271.9235,0,U,47275,999,26922,.810274E-3,.304E-5,0
