ONEWEB-0068             
1 45446U 20020Y   26203.02096266 -.00000027  00000+0 -11163-3 0  9996
2 45446  87.8893  14.1295 0001667  95.2765 264.8554 13.11414251307168
ONEWEB-0046             
1 45447U 20020Z   26203.01262250  .00000350  00000+0  95251-3 0  9991
2 45447  87.8889  14.1345 0001594  88.9319 271.1991 13.11416561307176
ONEWEB-0063             
1 45448U 20020AA  26202.43120902 -.00000471  00000+0 -13639-2 0  9999
2 45448  87.8899  14.2522 0001805  82.7060 277.4273 13.11417015307184
ONEWEB-0019             
1 45449U 20020AB  26203.00402244  .00000574  00000+0  15844-2 0  9998
2 45449  87.8892  14.1227 0001996  94.6440 265.4917 13.11417070307109
ONEWEB-0094             
1 45450U 20020AC  26202.67797248  .00000086  00000+0  18900-3 0  9998
2 45450  87.9161 358.9910 0001865 101.0602 259.0739 13.17650177310857
ONEWEB-0087             
1 45451U 20020AD  26202.89888551 -.00000353  00000+0 -10308-2 0  9993
2 45451  87.8908  14.1356 0001611  98.5825 261.5486 13.11418522307131
ONEWEB-0082             
1 45452U 20020AE  26202.89549171 -.00000451  00000+0 -13073-2 0  9997
2 45452  87.8899  14.1504 0001338  95.9513 264.1768 13.11418567307228
ONEWEB-0050             
1 45453U 20020AF  26203.05514758  .00001474  00000+0  14888-3 0  9990
2 45453  88.9276 228.4735 0003307 156.6253 203.5127 14.90487377345579
ONEWEB-0034             
1 45454U 20020AG  26203.00940411  .00000574  00000+0  15830-2 0  9992
2 45454  87.8898  14.1372 0001798  91.1113 269.0221 13.11416640307156
ONEWEB-0060             
1 45455U 20020AH  26203.04059956 -.00000460  00000+0 -13331-2 0  9992
2 45455  87.8892  14.1262 0001511 126.4263 233.7004 13.11416350307111
ONEWEB-0086             
1 45456U 20020AJ  26203.01926959  .00000194  00000+0  51170-3 0  9992
2 45456  87.8897  14.1284 0002064 114.0685 246.0659 13.11416362307178
ONEWEB-0088             
1 45457U 20020AK  26202.99736598  .00000510  00000+0  14040-2 0  9993
2 45457  87.8906  14.1081 0001572  80.2486 279.8819 13.11418182307108
ONEWEB-0102             
1 47258U 20100A   26202.82187335 -.00000065  00000+0 -21630-3 0  9995
2 47258  87.8971 343.7884 0002098 102.5869 257.5495 13.12444468269275
ONEWEB-0109             
1 47259U 20100B   26202.83034531  .00000228  00000+0  59936-3 0  9995
2 47259  87.8981 343.7731 0002005  96.4620 263.6737 13.12444477269101
ONEWEB-0110             
1 47260U 20100C   26202.62874870  .00000271  00000+0  71728-3 0  9993
2 47260  87.8980 343.7973 0001918 107.0234 253.1105 13.12442204269246
ONEWEB-0111             
1 47261U 20100D   26202.35428435 -.00000231  00000+0 -67669-3 0  9993
2 47261  87.8978 343.8705 0001763  99.6246 260.5082 13.12444135269044
ONEWEB-0114             
1 47262U 20100E   26202.84221071  .00000440  00000+0  11876-2 0  9993
2 47262  87.8983 343.7720 0002036  94.4453 265.6908 13.12442907269064
ONEWEB-0117             
1 47263U 20100F   26202.68126530  .00000379  00000+0  10174-2 0  9991
2 47263  87.8978 343.7934 0001878  97.5430 262.5912 13.12443695269053
ONEWEB-0118             
1 47264U 20100G   26202.79138524 -.00000203  00000+0 -59926-3 0  9997
2 47264  87.8979 343.7742 0001865  87.4691 272.6651 13.12440873269265
ONEWEB-0119             
1 47265U 20100H   26202.81679503 -.00000227  00000+0 -66610-3 0  9992
2 47265  87.8969 343.7829 0001868  96.8211 263.3131 13.12443245269240
ONEWEB-0120             
1 47266U 20100J   26202.84065859  .00000452  00000+0  12213-2 0  9996
2 47266  87.8970 343.7798 0002049  95.3131 264.8231 13.12442482269277
ONEWEB-0121             
1 47267U 20100K   26202.67618034  .00000133  00000+0  33410-3 0  9996
2 47267  87.8980 343.8017 0001593 103.3691 256.7615 13.12443384269164
ONEWEB-0122             
1 47268U 20100L   26202.82272703 -.00000021  00000+0 -94582-4 0  9999
2 47268  87.8979 343.7777 0002030  99.0132 261.1226 13.12442653269091
ONEWEB-0123             
1 47269U 20100M   26202.36106162 -.00000046  00000+0 -16184-3 0  9992
2 47269  87.8968 343.8727 0001853  93.6064 266.5277 13.12444118269174
ONEWEB-0124             
1 47270U 20100N   26202.35089406 -.00000271  00000+0 -78745-3 0  9995
2 47270  87.8967 343.8772 0001748  98.5703 261.5624 13.12443657269057
ONEWEB-0125             
1 47271U 20100P   26202.63382005 -.00000006  00000+0 -52168-4 0  9996
2 47271  87.8981 343.8084 0001554  94.5548 265.5758 13.12441804269153
ONEWEB-0126             
1 47272U 20100Q   26202.80677392 -.00000426  00000+0 -12190-2 0  9997
2 47272  87.8973 343.7872 0001961  95.0266 265.1087 13.12442600269240
ONEWEB-0127             
1 47273U 20100R   26202.84898519  .00000340  00000+0  90900-3 0  9997
2 47273  87.8968 343.7760 0002015  97.3802 262.7556 13.12442382269277
ONEWEB-0128             
1 47274U 20100S   26202.33734064 -.00000272  00000+0 -79118-3 0  9990
2 47274  87.8966 343.8914 0001884 106.9120 253.2215 13.12442661269223
ONEWEB-0129             
1 47275U 20100T   26202.85068455  .00000304  00000+0  81027-3 0  9998
2 47275  87.8980 343.7665 0002882  88.2223 271.9235 13.12441789269226
